DTUSAT                  
1 27842U 03031C   12354.92312581  .00000142  00000-0  85194-4 0  5675
2 27842  98.6912   0.8969 0009969  26.5835 333.5859 14.21376442491390
CUTE-1 (CO-55)          
1 27844U 03031E   12354.02673936  .00000218  00000-0  12038-3 0  5357
2 27844  98.7017 359.7213 0010438  52.0669 308.1436 14.21132004491145
QUAKESAT                
1 27845U 03031F   12354.75958000  .00000280  00000-0  14965-3 0  5840
2 27845  98.7118   0.3869 0009636  67.7796 292.4401 14.20887202491116
AAU CUBESAT             
1 27846U 03031G   12354.57194151  .00000141  00000-0  84528-4 0  4501
2 27846  98.6915   0.5409 0009933  28.5761 331.5958 14.21374665491342
CANX-1                  
1 27847U 03031H   12354.53213437  .00000179  00000-0  10214-3 0  4474
2 27847  98.6893   0.4689 0009811  28.8600 331.3121 14.21344125491288
CUBESAT XI-IV (CO-57)   
1 27848U 03031J   12353.57059888  .00000168  00000-0  97696-4 0  4834
2 27848  98.7105 358.6923 0010409  57.8931 302.3269 14.20868916491019
UWE-1                   
1 28892U 05043C   12354.63886861  .00000661  00000-0  14408-3 0  4046
2 28892  97.8851 211.1848 0016439 289.8611  70.0819 14.60870811380846
CUBESAT XI-V (CO-58)    
1 28895U 05043F   12353.61836316  .00000926  00000-0  19800-3 0  3578
2 28895  97.8889 211.5334 0016632 292.1476  67.7966 14.60895949380581
NCUBE-2                 
1 28897U 05043H   12355.07268255  .00000643  00000-0  13942-3 0  9330
2 28897  97.8872 212.8434 0015970 287.8365  72.1156 14.61149477373113
CSTB1                   
1 31122U 07012F   12354.56074890  .00001009  00000-0  22541-3 0  6964
2 31122  97.8626   1.1273 0082610 234.3406 125.0083 14.56729737301589
MAST                    
1 31126U 07012K   12355.06262690  .00000644  00000-0  15353-3 0  6373
2 31126  97.8732 355.3107 0092306 251.1866 107.9299 14.54385746301282
LIBERTAD-1              
1 31128U 07012M   12355.01551191 -.00000047  00000-0  00000+0 0  7061
2 31128  97.8882 351.4731 0100096 266.0947  92.8843 14.53154042300964
POLYSAT CP3             
1 31129U 07012N   12354.43617042  .00000791  00000-0  18870-3 0  3435
2 31129  97.8863 351.3702 0099480 267.0296  91.9501 14.53391857300882
CAPE1                   
1 31130U 07012P   12354.97475170  .00000950  00000-0  22505-3 0  6485
2 31130  97.8884 351.5481 0099955 266.0173  92.9628 14.53239970300757
POLYSAT CP4             
1 31132U 07012Q   12354.92292761  .00000831  00000-0  18924-3 0  6506
2 31132  97.8603   0.5764 0083231 233.9376 125.4108 14.56266179301481
NTS (CANX-6)            
1 32784U 08021B   12354.73411010  .00001558  00000-0  19895-3 0  5021
2 32784  97.7758  50.0284 0015485 169.8275 190.3242 14.82754564251183
CUTE-1.7+APD II (CO-65) 
1 32785U 08021C   12355.17127415  .00000942  00000-0  12085-3 0  5024
2 32785  97.7762  51.6221 0014410 169.4132 190.7387 14.83469211251336
COMPASS-1               
1 32787U 08021E   12354.85074047  .00002014  00000-0  24315-3 0  4954
2 32787  97.7776  51.9244 0014941 168.5242 191.6290 14.84796026251355
AAUSAT-II               
1 32788U 08021F   12355.18040723  .00002266  00000-0  27020-3 0  4872
2 32788  97.7780  52.7414 0014837 166.9763 193.1926 14.85191789251431
DELFI-C3 (DO-64)        
1 32789U 08021G   12355.07622594  .00004773  00000-0  53451-3 0  5078
2 32789  97.7905  55.4564 0014372 163.3383 196.8311 14.87257320251490
CANX-2                  
1 32790U 08021H   12354.27596053  .00001594  00000-0  20041-3 0  4954
2 32790  97.7729  50.3409 0015086 173.3665 186.7714 14.83365610251173
SEEDS II (CO-66)        
1 32791U 08021J   12354.17996848  .00001549  00000-0  19173-3 0  4831
2 32791  97.7779  50.8421 0015548 171.6501 188.5046 14.84064806251173
SWISSCUBE               
1 35932U 09051B   12354.28872096  .00005356  00000-0  12986-2 0  9069
2 35932  98.3482  96.4082 0008549 242.2613 117.7537 14.53329045171740
BEESAT                  
1 35933U 09051C   12354.82964295  .00007980  00000-0  19109-2 0  1233
2 35933  98.3486  97.4558 0005394 261.2112  98.8269 14.53774057171887
UWE-2                   
1 35934U 09051D   12354.76865764  .00003369  00000-0  81574-3 0  5347
2 35934  98.3406  96.9029 0005964 265.6083  94.4271 14.53646696171876
ITUPSAT 1               
1 35935U 09051E   12354.75018355  .00001972  00000-0  48744-3 0   966
2 35935  98.3567  97.5496 0007804 254.2221 105.8061 14.53119607171795
TISAT 1                 
1 36799U 10035E   12355.18039448  .00001860  00000-0  23720-3 0  6388
2 36799  98.0490  72.8068 0013544 291.1764  68.8026 14.82672175132047
DICE-F                  
1 37851U 11061B   12354.45495886  .00008025  00000-0  62357-3 0  3767
2 37851 101.7101 119.2567 0242792 182.5955 177.4013 14.81368826 61804
DICE-Y                  
1 37852U 11061C   12354.24990117  .00009851  00000-0  75532-3 0  3725
2 37852 101.7104 119.1805 0240987 182.6407 177.3551 14.81970758 61785
RAX-2                   
1 37853U 11061D   12355.26617832  .00008865  00000-0  68278-3 0  3766
2 37853 101.7038 120.3496 0241167 179.7771 180.3586 14.81851461 61932
AUBIESAT-1              
1 37854U 11061E   12354.89434691  .00010245  00000-0  77357-3 0  3746
2 37854 101.7068 120.3317 0241571 179.8836 180.2462 14.82390359 61881
M-CUBED & EXP-1 PRIME   
1 37855U 11061F   12354.25605184  .00009274  00000-0  70346-3 0  3701
2 37855 101.7068 119.2772 0242605 181.8986 178.1325 14.82135791 61782
E-ST@R                  
1 38079U 12006C   12355.13343394  .00062795  00000-0  14148-2 0  7315
2 38079  69.4810 246.3447 0679699  10.4329 351.0006 14.30186190 44019
2012-006D               
1 38080U 12006D   12355.07438535  .00065362  00000-0  14983-2 0  7109
2 38080  69.4758 246.3259 0677093  10.8641 350.6226 14.30380550 44004
MASAT 1                 
1 38081U 12006E   12355.10063729  .00065090  00000-0  14907-2 0  7411
2 38081  69.4758 246.4647 0677953  10.7954 350.6769 14.30217132 44005
XATCOBEO                
1 38082U 12006F   12355.13474382  .00079122  00000-0  17430-2 0  7893
2 38082  69.4839 244.2395 0658517   9.1728 352.0602 14.35115380 44074
PW-SAT                  
1 38083U 12006G   12355.11771426  .00072567  00000-0  16408-2 0  8690
2 38083  69.4806 245.2404 0666654   9.9018 351.4407 14.32864848 44042
2012-006H               
1 38084U 12006H   12355.15238462  .00065439  00000-0  14755-2 0  7718
2 38084  69.4838 247.0578 0683753  10.8809 350.6204 14.29305098 43990
2012-006J               
1 38085U 12006J   12355.13533660  .00062026  00000-0  14099-2 0  7041
2 38085  69.4880 247.3810 0685656  11.0388 350.4792 14.28741564 43989
RAIKO                   
1 38852U 98067CN  12355.21985954  .00042887  00000-0  58697-3 0   825
2 38852  51.6488 275.8700 0018038  59.8039 300.4735 15.56785346 11849
FITSAT-1 (NIWAKA)       
1 38853U 98067CP  12355.19406699  .00051828  00000-0  68089-3 0   794
2 38853  51.6507 275.7018 0015435  75.7800 284.4885 15.57848980 11891
TECHEDSAT               
1 38854U 98067CQ  12355.20340013  .00074038  00000-0  88408-3 0   889
2 38854  51.6464 275.0140 0015647  81.6445 278.6316 15.60214634 11902
F-1                     
1 38855U 98067CR  12354.88970460  .00073974  00000-0  89357-3 0   914
2 38855  51.6486 276.6592 0015440  78.8184 281.4508 15.59916918 11743
WE-WISH                 
1 38856U 98067CS  12355.16716114  .00130784  00000-0  12786-2 0  1051
2 38856  51.6452 274.0145 0017616  75.8657 284.4294 15.65036735 11801
